FLOCK 4BE-13            
1 60512U 24149AW  26167.70165015  .00011520  00000+0  27331-3 0  9998
2 60512  97.3726 252.1078 0002894 262.9726  97.1191 15.41876417102298
FLOCK 4BE-27            
1 60513U 24149AX  26167.73797904  .00007320  00000+0  22185-3 0  9995
2 60513  97.3829 249.5885 0002497 319.0034  41.1020 15.34439355102078
FLOCK 4BE-9             
1 60514U 24149AY  26167.70044396  .00012944  00000+0  31810-3 0  9996
2 60514  97.3797 251.9671 0001403 299.6501  60.4606 15.40783692102247
FLOCK 4BE-6             
1 60516U 24149BA  26167.72883017  .00011882  00000+0  30410-3 0  9996
2 60516  97.3796 251.3552 0002033 297.7097  62.3942 15.39563978102200
FLOCK 4BE-14            
1 60517U 24149BB  26167.71298841  .00013843  00000+0  33777-3 0  9999
2 60517  97.3701 251.4747 0003040 294.1004  65.9924 15.40979950102259
FLOCK 4BE-1             
1 60518U 24149BC  26167.21045583  .00014269  00000+0  33019-3 0  9990
2 60518  97.3787 252.2416 0002820 293.9500  66.1452 15.42573409102226
FLOCK 4BE-28            
1 60519U 24149BD  26167.67953456  .00014757  00000+0  31579-3 0  9999
2 60519  97.3754 253.4392 0002940 286.1721  73.9204 15.44895854102368
IPERDRONE.0             
1 60520U 24149BE  26167.73160921  .00067063  00000+0  63898-3 0  9992
2 60520  97.3783 260.9210 0003541 226.7797 133.3168 15.66590033102843
TRANSPORTER-11 OBJECT BF
1 60521U 24149BF  26167.75028549  .00215872  00000+0  92371-3 0  9995
2 60521  97.3767 263.6545 0006033 234.6735 125.3972 15.84556707103010
CONNECTA IOT-2          
1 60522U 24149BG  26167.85177601  .00003705  00000+0  15598-3 0  9997
2 60522  97.3842 246.0023 0005560 339.3032  20.7980 15.23972937101844
CONNECTA IOT-4          
1 60524U 24149BJ  26167.75309304  .00015168  00000+0  35607-3 0  9994
2 60524  97.3805 252.1180 0004026 286.9891  73.0915 15.42125661102264
ORESAT0.5               
1 60525U 24149BK  26167.72962347  .00016653  00000+0  35394-3 0  9997
2 60525  97.3733 253.7232 0004109 275.0394  85.0385 15.45065991102401
DEIMOS                  
1 60526U 24149BL  26167.50237989  .00015197  00000+0  33279-3 0  9993
2 60526  97.3788 253.6325 0004015 284.9604  75.1199 15.44203187102349
CUAVA-2                 
1 60527U 24149BM  26167.75744347  .00009812  00000+0  28110-3 0  9997
2 60527  97.3731 249.2757 0005209 297.0639  63.0073 15.36109053102106
ERNST                   
1 60528U 24149BN  26167.71471519  .00011496  00000+0  29775-3 0  9991
2 60528  97.3814 251.4305 0004442 300.7499  59.3309 15.39199961102208
TORO                    
1 60530U 24149BQ  26167.70483022  .00001611  00000+0  14710-3 0  9996
2 60530  97.6792 242.3817 0001567  81.6680 278.4719 14.96425355 99887
HYPSO-2                 
1 60531U 24149BR  26167.73337242  .00001854  00000+0  15873-3 0  9992
2 60531  97.6813 244.0012 0000447  29.6226 330.5022 14.98786953 99986
LEMU NGE                
1 60532U 24149BS  26167.44890157  .00001240  00000+0  11872-3 0  9994
2 60532  97.6845 242.4235 0002134  64.0696 296.0744 14.94953492 99842
LEMUR-2-STELLA          
1 60533U 24149BT  26167.75083388  .00009258  00000+0  54568-3 0  9995
2 60533  97.6742 250.2036 0001732  96.0993 264.0434 15.11804625100435
SATELIOT_2              
1 60534U 24149BU  26167.75884145  .00002154  00000+0  19538-3 0  9992
2 60534  97.6833 242.7225 0002121  95.7726 264.3737 14.96361413 99909
NIGHTJAR                
1 60535U 24149BV  26167.65815094  .00001900  00000+0  16161-3 0  9996
2 60535  97.6846 244.3728 0001296  77.6056 282.5311 14.99016085142798
LEMUR-2-MARHISYAM       
1 60536U 24149BW  26167.86341396  .00009009  00000+0  53922-3 0  9993
2 60536  97.6881 250.7652 0003286 118.9205 241.2354 15.11255844100438
SATELIOT_4              
1 60537U 24149BX  26167.50232820  .00001698  00000+0  15381-3 0  9999
2 60537  97.6744 241.9991 0003317  62.1617 297.9941 14.96669504 99876
PICO-02A021             
1 60538U 24149BY  26166.96827807  .00005072  00000+0  37893-3 0  9996
2 60538  97.6752 245.8092 0004963  31.2057 328.9462 15.03241779 99551
ICEYE-X43               
1 60539U 24149BZ  26167.69504289  .00003543  00000+0  29238-3 0  9999
2 60539  97.6786 244.6662 0008214  86.3581 273.8582 14.99614733100041
HAWK-10A                
1 60540U 24149CA  26167.70158030  .00001860  00000+0  16867-3 0  9996
2 60540  97.6898 243.6212 0005040  79.9328 280.2462 14.96516768 99916
UMBRA-09                
1 60541U 24149CB  26167.21053020  .00012525  00000+0  61858-3 0  9996
2 60541  97.6977 254.3989 0000609 274.6306  85.4857 15.18018194100574
QPS-SAR-8 (AMATERU-IV)  
1 60542U 24149CC  26167.72798714  .00003663  00000+0  26858-3 0  9993
2 60542  97.6662 246.8821 0004818 108.9706 251.2042 15.04130529100207
ARCTIC WEATHER SATELLITE
1 60543U 24149CD  26167.75068822  .00000756  00000+0  84390-4 0  9993
2 60543  97.6801 238.2289 0003647 105.1379 255.0243 14.89806062 99239
CAPELLA-15 (ACADIA-5)   
1 60544U 24149CE  26167.45092511  .00002774  00000+0  27631-3 0  9999
2 60544  97.6771 240.3725 0004609  79.9656 280.2084 14.92391986 99747
