OBJECT_NAME,OBJECT_ID,EPOCH,MEAN_MOTION,ECCENTRICITY,INCLINATION,RA_OF_ASC_NODE,ARG_OF_PERICENTER,MEAN_ANOMALY,EPHEMERIS_TYPE,CLASSIFICATION_TYPE,NORAD_CAT_ID,ELEMENT_SET_NO,REV_AT_EPOCH,BSTAR,MEAN_MOTION_DOT,MEAN_MOTION_DDOT
FLOCK 4BE-13,2024-149AW,2026-06-16T16:50:22.572960,15.41876417,.0002894,97.3726,252.1078,262.9726,97.1191,0,U,60512,999,10229,.27331E-3,.1152E-3,0
FLOCK 4BE-27,2024-149AX,2026-06-16T17:42:41.389056,15.34439355,.0002497,97.3829,249.5885,319.0034,41.1020,0,U,60513,999,10207,.22185E-3,.732E-4,0
FLOCK 4BE-9,2024-149AY,2026-06-16T16:48:38.358144,15.40783692,.0001403,97.3797,251.9671,299.6501,60.4606,0,U,60514,999,10224,.3181E-3,.12944E-3,0
FLOCK 4BE-6,2024-149BA,2026-06-16T17:29:30.926688,15.39563978,.0002033,97.3796,251.3552,297.7097,62.3942,0,U,60516,999,10220,.3041E-3,.11882E-3,0
FLOCK 4BE-14,2024-149BB,2026-06-16T17:06:42.198624,15.40979950,.000304,97.3701,251.4747,294.1004,65.9924,0,U,60517,999,10225,.33777E-3,.13843E-3,0
FLOCK 4BE-1,2024-149BC,2026-06-16T05:03:03.383712,15.42573409,.00028208,97.3787,252.2416,293.9500,66.1452,0,U,60518,999,10222,.33019231E-3,.14269E-3,0
FLOCK 4BE-28,2024-149BD,2026-06-16T16:18:31.785984,15.44895854,.000294,97.3754,253.4392,286.1721,73.9204,0,U,60519,999,10236,.31579E-3,.14757E-3,0
IPERDRONE.0,2024-149BE,2026-06-16T17:33:31.035744,15.66590033,.0003541,97.3783,260.9210,226.7797,133.3168,0,U,60520,999,10284,.63898E-3,.67063E-3,0
TRANSPORTER-11 OBJECT BF,2024-149BF,2026-06-16T18:00:24.666336,15.84556707,.0006033,97.3767,263.6545,234.6735,125.3972,0,U,60521,999,10301,.92371E-3,.215872E-2,0
CONNECTA IOT-2,2024-149BG,2026-06-16T20:26:33.447264,15.23972937,.000556,97.3842,246.0023,339.3032,20.7980,0,U,60522,999,10184,.15598E-3,.3705E-4,0
CONNECTA IOT-4,2024-149BJ,2026-06-16T18:04:27.238656,15.42125661,.0004026,97.3805,252.1180,286.9891,73.0915,0,U,60524,999,10226,.35607E-3,.15168E-3,0
ORESAT0.5,2024-149BK,2026-06-16T17:30:39.467808,15.45065991,.0004109,97.3733,253.7232,275.0394,85.0385,0,U,60525,999,10240,.35394E-3,.16653E-3,0
DEIMOS,2024-149BL,2026-06-16T12:03:25.622496,15.44203187,.00040157,97.3788,253.6325,284.9604,75.1199,0,U,60526,999,10234,.33278969E-3,.15197E-3,0
CUAVA-2,2024-149BM,2026-06-16T18:10:43.115808,15.36109053,.0005209,97.3731,249.2757,297.0639,63.0073,0,U,60527,999,10210,.2811E-3,.9812E-4,0
ERNST,2024-149BN,2026-06-16T17:09:11.392416,15.39199961,.0004442,97.3814,251.4305,300.7499,59.3309,0,U,60528,999,10220,.29775E-3,.11496E-3,0
TORO,2024-149BQ,2026-06-16T16:54:57.331008,14.96425355,.0001567,97.6792,242.3817,81.6680,278.4719,0,U,60530,999,9988,.1471E-3,.1611E-4,0
HYPSO-2,2024-149BR,2026-06-16T17:36:03.377088,14.98786953,.0000447,97.6813,244.0012,29.6226,330.5022,0,U,60531,999,9998,.15873E-3,.1854E-4,0
LEMU NGE,2024-149BS,2026-06-16T10:46:25.095648,14.94953492,.0002134,97.6845,242.4235,64.0696,296.0744,0,U,60532,999,9984,.11871772E-3,.124E-4,0
LEMUR-2-STELLA,2024-149BT,2026-06-16T18:01:12.047232,15.11804625,.0001732,97.6742,250.2036,96.0993,264.0434,0,U,60533,999,10043,.54568E-3,.9258E-4,0
SATELIOT_2,2024-149BU,2026-06-16T18:12:43.901280,14.96361413,.0002121,97.6833,242.7225,95.7726,264.3737,0,U,60534,999,9990,.19538E-3,.2154E-4,0
NIGHTJAR,2024-149BV,2026-06-16T15:47:44.241216,14.99016085,.0001296,97.6846,244.3728,77.6056,282.5311,0,U,60535,999,14279,.16161E-3,.19E-4,0
LEMUR-2-MARHISYAM,2024-149BW,2026-06-16T20:43:18.966144,15.11255844,.0003286,97.6881,250.7652,118.9205,241.2354,0,U,60536,999,10043,.53922E-3,.9009E-4,0
SATELIOT_4,2024-149BX,2026-06-16T12:03:21.156480,14.96669504,.0003317,97.6744,241.9991,62.1617,297.9941,0,U,60537,999,9987,.15380789E-3,.1698E-4,0
PICO-02A021,2024-149BY,2026-06-15T23:14:19.225248,15.03241779,.00049638,97.6752,245.8092,31.2057,328.9462,0,U,60538,999,9955,.3789323E-3,.5072E-4,0
ICEYE-X43,2024-149BZ,2026-06-16T16:40:51.705696,14.99614733,.0008214,97.6786,244.6662,86.3581,273.8582,0,U,60539,999,10004,.29238E-3,.3543E-4,0
HAWK-10A,2024-149CA,2026-06-16T16:50:16.537920,14.96516768,.000504,97.6898,243.6212,79.9328,280.2462,0,U,60540,999,9991,.16867E-3,.186E-4,0
UMBRA-09,2024-149CB,2026-06-16T05:03:09.809280,15.18018194,.00006091,97.6977,254.3989,274.6306,85.4857,0,U,60541,999,10057,.61858023E-3,.12525E-3,0
QPS-SAR-8 (AMATERU-IV),2024-149CC,2026-06-16T17:28:18.088896,15.04130529,.0004818,97.6662,246.8821,108.9706,251.2042,0,U,60542,999,10020,.26858E-3,.3663E-4,0
ARCTIC WEATHER SATELLITE,2024-149CD,2026-06-16T18:00:59.462208,14.89806062,.0003647,97.6801,238.2289,105.1379,255.0243,0,U,60543,999,9923,.8439E-4,.756E-5,0
CAPELLA-15 (ACADIA-5),2024-149CE,2026-06-16T10:49:19.929504,14.92391986,.00046099,97.6771,240.3725,79.9656,280.2084,0,U,60544,999,9974,.27631088E-3,.2774E-4,0
